*******************************************************************************
Ephemeris / WWW_USER Mon Mar 10 14:46:03 2025 Pasadena, USA      / Horizons    
*******************************************************************************
Target body name: (2018 RC)                       {source: JPL#21}
Center body name: Earth (399)                     {source: DE441}
Center-site name: Gemini South Obs., Cerro Pachon
*******************************************************************************
Start time      : A.D. 2018-Sep-20 22:46:00.0000 UT      
Stop  time      : A.D. 2018-Sep-21 10:25:00.0000 UT      
Step-size       : 1 minutes
*******************************************************************************
Target pole/equ : undefined
Target radii    : undefined                                                    
Center geodetic : 289.2634, -30.2406227, 2.71233  {E-lon(deg),Lat(deg),Alt(km)}
Center cylindric: 289.2634,5517.21435,-3194.81213 {E-lon(deg),Dxy(km),Dz(km)}
Center pole/equ : ITRF93                          {East-longitude positive}
Center radii    : 6378.137, 6378.137, 6356.752 km {Equator_a, b, pole_c}       
Target primary  : Sun
Vis. interferer : MOON (R_eq= 1737.400) km        {source: DE441}
Rel. light bend : Sun                             {source: DE441}
Rel. lght bnd GM: 1.3271E+11 km^3/s^2                                          
Small-body perts: Yes                             {source: SB441-N16}
Atmos refraction: NO (AIRLESS)
RA format       : HMS
Time format     : CAL 
Calendar mode   : Mixed Julian/Gregorian
RTS-only print  : NO       
EOP file        : eop.250307.p250603                                           
EOP coverage    : DATA-BASED 1962-JAN-20 TO 2025-MAR-07. PREDICTS-> 2025-JUN-02
Units conversion: 1 au= 149597870.700 km, c= 299792.458 km/s, 1 day= 86400.0 s 
Table cut-offs 1: Elevation (-90.0deg=NO ),Airmass (>38.000=NO), Daylight (YES)
Table cut-offs 2: Solar elongation (  0.0,180.0=NO ),Local Hour Angle( 0.0=NO )
Table cut-offs 3: RA/DEC angular rate (     0.0=NO )                           
*******************************************************************************
Initial IAU76/J2000 heliocentric ecliptic osculating elements (au, days, deg.):
  EPOCH=  2458369.5 ! 2018-Sep-08.00 (TDB)         Residual RMS= .84866        
   EC= .2426621660028976   QR= .647471518312811    TP= 2458473.8617576878      
   OM= 346.8893436915528   W=  145.8737085184167   IN= 1.612045057594462       
  Equivalent ICRF heliocentric cartesian coordinates (au, au/d):
   X= 9.781363708094483E-01  Y=-2.377942828764822E-01  Z=-1.040448782093900E-01
  VX= 1.501011538102481E-03 VY= 1.393070215815854E-02 VZ= 6.509326736836346E-03
Asteroid physical parameters (km, seconds, rotational period in hours):        
   GM= n.a.                RAD= n.a.               ROTPER= .16548              
   H= 24.93                G= .150                 B-V= n.a.                   
                           ALBEDO= n.a.            STYP= n.a.                  
*******************************************************************************
 Date__(UT)__HR:MN     R.A._________(ICRF)_________DEC
******************************************************
$$SOE
 2018-Sep-21 02:52  m  13 23 19.774742 +00 55 45.15377
 2018-Sep-21 02:53  m  13 23 19.770059 +00 55 45.44320
 2018-Sep-21 02:54  m  13 23 19.765588 +00 55 45.73263
 2018-Sep-21 02:55  m  13 23 19.761329 +00 55 46.02207
 2018-Sep-21 02:56  m  13 23 19.757281 +00 55 46.31151
 2018-Sep-21 02:57  m  13 23 19.753442 +00 55 46.60095
 2018-Sep-21 02:58  m  13 23 19.749813 +00 55 46.89040
 2018-Sep-21 02:59  m  13 23 19.746391 +00 55 47.17986
 2018-Sep-21 03:00  m  13 23 19.743177 +00 55 47.46931
 2018-Sep-21 03:01  m  13 23 19.740169 +00 55 47.75878
 2018-Sep-21 03:02  m  13 23 19.737366 +00 55 48.04825
 2018-Sep-21 03:03  m  13 23 19.734768 +00 55 48.33772
 2018-Sep-21 03:04  m  13 23 19.732374 +00 55 48.62720
 2018-Sep-21 03:05  m  13 23 19.730182 +00 55 48.91669
 2018-Sep-21 03:06  m  13 23 19.728192 +00 55 49.20618
 2018-Sep-21 03:07  m  13 23 19.726403 +00 55 49.49568
 2018-Sep-21 03:08  m  13 23 19.724814 +00 55 49.78519
 2018-Sep-21 03:09  m  13 23 19.723424 +00 55 50.07470
 2018-Sep-21 03:10  m  13 23 19.722232 +00 55 50.36422
 2018-Sep-21 03:11  m  13 23 19.721237 +00 55 50.65374
 2018-Sep-21 03:12  m  13 23 19.720439 +00 55 50.94328
 2018-Sep-21 03:13  m  13 23 19.719836 +00 55 51.23282
 2018-Sep-21 03:14  m  13 23 19.719427 +00 55 51.52237
 2018-Sep-21 03:15  m  13 23 19.719212 +00 55 51.81193
 2018-Sep-21 03:16  m  13 23 19.719189 +00 55 52.10149
 2018-Sep-21 03:17  m  13 23 19.719357 +00 55 52.39107
 2018-Sep-21 03:18  m  13 23 19.719717 +00 55 52.68065
 2018-Sep-21 03:19  m  13 23 19.720266 +00 55 52.97024
 2018-Sep-21 03:20  m  13 23 19.721003 +00 55 53.25984
 2018-Sep-21 03:21  m  13 23 19.721929 +00 55 53.54945
 2018-Sep-21 03:22  m  13 23 19.723041 +00 55 53.83907
 2018-Sep-21 03:23  m  13 23 19.724338 +00 55 54.12870
 2018-Sep-21 03:24  m  13 23 19.725821 +00 55 54.41834
 2018-Sep-21 03:25  m  13 23 19.727487 +00 55 54.70799
 2018-Sep-21 03:26  m  13 23 19.729337 +00 55 54.99765
 2018-Sep-21 03:27  m  13 23 19.731368 +00 55 55.28732
 2018-Sep-21 03:28  m  13 23 19.733580 +00 55 55.57700
 2018-Sep-21 03:29  m  13 23 19.735972 +00 55 55.86669
 2018-Sep-21 03:30  m  13 23 19.738542 +00 55 56.15640
 2018-Sep-21 03:31  m  13 23 19.741291 +00 55 56.44611
 2018-Sep-21 03:32  m  13 23 19.744216 +00 55 56.73584
 2018-Sep-21 03:33  m  13 23 19.747318 +00 55 57.02557
 2018-Sep-21 03:34  m  13 23 19.750594 +00 55 57.31532
 2018-Sep-21 03:35  m  13 23 19.754044 +00 55 57.60508
 2018-Sep-21 03:36  m  13 23 19.757667 +00 55 57.89486
 2018-Sep-21 03:37  m  13 23 19.761462 +00 55 58.18464
 2018-Sep-21 03:38  m  13 23 19.765428 +00 55 58.47444
 2018-Sep-21 03:39  m  13 23 19.769563 +00 55 58.76425
 2018-Sep-21 03:40  m  13 23 19.773867 +00 55 59.05408
 2018-Sep-21 03:41  m  13 23 19.778339 +00 55 59.34391
 2018-Sep-21 03:42  m  13 23 19.782978 +00 55 59.63377
 2018-Sep-21 03:43  m  13 23 19.787782 +00 55 59.92363
 2018-Sep-21 03:44  m  13 23 19.792751 +00 56 00.21351
 2018-Sep-21 03:45  m  13 23 19.797884 +00 56 00.50340
 2018-Sep-21 03:46  m  13 23 19.803179 +00 56 00.79331
 2018-Sep-21 03:47  m  13 23 19.808636 +00 56 01.08323
 2018-Sep-21 03:48  m  13 23 19.814253 +00 56 01.37316
 2018-Sep-21 03:49  m  13 23 19.820029 +00 56 01.66311
 2018-Sep-21 03:50  m  13 23 19.825964 +00 56 01.95308
 2018-Sep-21 03:51  m  13 23 19.832057 +00 56 02.24306
 2018-Sep-21 03:52  m  13 23 19.838305 +00 56 02.53305
 2018-Sep-21 03:53  m  13 23 19.844709 +00 56 02.82306
 2018-Sep-21 03:54  m  13 23 19.851267 +00 56 03.11309
 2018-Sep-21 03:55  m  13 23 19.857977 +00 56 03.40313
 2018-Sep-21 03:56  m  13 23 19.864840 +00 56 03.69319
 2018-Sep-21 03:57  m  13 23 19.871854 +00 56 03.98326
 2018-Sep-21 03:58  m  13 23 19.879018 +00 56 04.27335
 2018-Sep-21 03:59  m  13 23 19.886330 +00 56 04.56345
 2018-Sep-21 04:00  m  13 23 19.893790 +00 56 04.85358
 2018-Sep-21 04:01  m  13 23 19.901397 +00 56 05.14371
 2018-Sep-21 04:02  m  13 23 19.909149 +00 56 05.43387
 2018-Sep-21 04:03  m  13 23 19.917045 +00 56 05.72404
 2018-Sep-21 04:04  m  13 23 19.925085 +00 56 06.01423
 2018-Sep-21 04:05  m  13 23 19.933267 +00 56 06.30444
 2018-Sep-21 04:06  m  13 23 19.941590 +00 56 06.59467
 2018-Sep-21 04:07  m  13 23 19.950054 +00 56 06.88491
 2018-Sep-21 04:08  m  13 23 19.958656 +00 56 07.17517
 2018-Sep-21 04:09  m  13 23 19.967396 +00 56 07.46545
 2018-Sep-21 04:10  m  13 23 19.976273 +00 56 07.75574
 2018-Sep-21 04:11  m  13 23 19.985285 +00 56 08.04606
 2018-Sep-21 04:12  m  13 23 19.994432 +00 56 08.33639
 2018-Sep-21 04:13  m  13 23 20.003712 +00 56 08.62674
 2018-Sep-21 04:14  m  13 23 20.013125 +00 56 08.91711
 2018-Sep-21 04:15  m  13 23 20.022668 +00 56 09.20750
 2018-Sep-21 04:16  m  13 23 20.032342 +00 56 09.49791
 2018-Sep-21 04:17  m  13 23 20.042145 +00 56 09.78834
 2018-Sep-21 04:18  m  13 23 20.052075 +00 56 10.07879
 2018-Sep-21 04:19  m  13 23 20.062132 +00 56 10.36926
 2018-Sep-21 04:20  m  13 23 20.072315 +00 56 10.65974
 2018-Sep-21 04:21  m  13 23 20.082622 +00 56 10.95025
 2018-Sep-21 04:22  m  13 23 20.093052 +00 56 11.24078
 2018-Sep-21 04:23  m  13 23 20.103604 +00 56 11.53132
 2018-Sep-21 04:24  m  13 23 20.114278 +00 56 11.82189
 2018-Sep-21 04:25  m  13 23 20.125071 +00 56 12.11248
 2018-Sep-21 04:26  m  13 23 20.135983 +00 56 12.40308
 2018-Sep-21 04:27  m  13 23 20.147013 +00 56 12.69371
 2018-Sep-21 04:28  m  13 23 20.158159 +00 56 12.98436
 2018-Sep-21 04:29  m  13 23 20.169420 +00 56 13.27503
 2018-Sep-21 04:30  m  13 23 20.180795 +00 56 13.56572
 2018-Sep-21 04:31  m  13 23 20.192284 +00 56 13.85644
 2018-Sep-21 04:32  m  13 23 20.203884 +00 56 14.14717
 2018-Sep-21 04:33  m  13 23 20.215595 +00 56 14.43793
 2018-Sep-21 04:34  m  13 23 20.227415 +00 56 14.72870
 2018-Sep-21 04:35  m  13 23 20.239344 +00 56 15.01950
 2018-Sep-21 04:36  m  13 23 20.251380 +00 56 15.31032
 2018-Sep-21 04:37  m  13 23 20.263522 +00 56 15.60117
 2018-Sep-21 04:38  m  13 23 20.275768 +00 56 15.89203
 2018-Sep-21 04:39  m  13 23 20.288119 +00 56 16.18292
 2018-Sep-21 04:40  m  13 23 20.300572 +00 56 16.47383
 2018-Sep-21 04:41  m  13 23 20.313126 +00 56 16.76476
 2018-Sep-21 04:42  m  13 23 20.325781 +00 56 17.05572
 2018-Sep-21 04:43  m  13 23 20.338534 +00 56 17.34669
 2018-Sep-21 04:44  m  13 23 20.351386 +00 56 17.63769
 2018-Sep-21 04:45  m  13 23 20.364334 +00 56 17.92872
 2018-Sep-21 04:46  m  13 23 20.377377 +00 56 18.21977
 2018-Sep-21 04:47  m  13 23 20.390515 +00 56 18.51084
 2018-Sep-21 04:48  m  13 23 20.403746 +00 56 18.80193
 2018-Sep-21 04:49  m  13 23 20.417069 +00 56 19.09305
 2018-Sep-21 04:50  m  13 23 20.430482 +00 56 19.38419
 2018-Sep-21 04:51  m  13 23 20.443985 +00 56 19.67535
 2018-Sep-21 04:52  m  13 23 20.457577 +00 56 19.96654
 2018-Sep-21 04:53  m  13 23 20.471256 +00 56 20.25775
 2018-Sep-21 04:54  m  13 23 20.485020 +00 56 20.54899
